[{
    "OBJECT_NAME": "STARLINK-6148",
    "OBJECT_ID": "2023-090S",
    "EPOCH": "2023-07-17T06:00:00.999648",
    "MEAN_MOTION": 15.68325624,
    "ECCENTRICITY": 0.0001574,
    "INCLINATION": 43.0003,
    "RA_OF_ASC_NODE": 139.0123,
    "ARG_OF_PERICENTER": 273.6099,
    "MEAN_ANOMALY": 115.3833,
    "EPHEMERIS_TYPE": 0,
    "CLASSIFICATION_TYPE": "U",
    "NORAD_CAT_ID": 57117,
    "ELEMENT_SET_NO": 999,
    "REV_AT_EPOCH": 374,
    "BSTAR": -0.0080957,
    "MEAN_MOTION_DOT": -0.00845507,
    "MEAN_MOTION_DDOT": 0
},{
    "OBJECT_NAME": "STARLINK-6151",
    "OBJECT_ID": "2023-090T",
    "EPOCH": "2023-07-17T06:00:00.999648",
    "MEAN_MOTION": 15.68312541,
    "ECCENTRICITY": 0.0001554,
    "INCLINATION": 43,
    "RA_OF_ASC_NODE": 139.0161,
    "ARG_OF_PERICENTER": 271.7864,
    "MEAN_ANOMALY": 115.3179,
    "EPHEMERIS_TYPE": 0,
    "CLASSIFICATION_TYPE": "U",
    "NORAD_CAT_ID": 57118,
    "ELEMENT_SET_NO": 999,
    "REV_AT_EPOCH": 374,
    "BSTAR": -0.0081653,
    "MEAN_MOTION_DOT": -0.00851655,
    "MEAN_MOTION_DDOT": 0
},{
    "OBJECT_NAME": "STARLINK-6150",
    "OBJECT_ID": "2023-090U",
    "EPOCH": "2023-07-17T06:00:00.999648",
    "MEAN_MOTION": 15.68334434,
    "ECCENTRICITY": 0.0001566,
    "INCLINATION": 43.0008,
    "RA_OF_ASC_NODE": 139.012,
    "ARG_OF_PERICENTER": 274.7491,
    "MEAN_ANOMALY": 114.871,
    "EPHEMERIS_TYPE": 0,
    "CLASSIFICATION_TYPE": "U",
    "NORAD_CAT_ID": 57119,
    "ELEMENT_SET_NO": 999,
    "REV_AT_EPOCH": 374,
    "BSTAR": -0.0081286,
    "MEAN_MOTION_DOT": -0.00848892,
    "MEAN_MOTION_DDOT": 0
},{
    "OBJECT_NAME": "STARLINK-6147",
    "OBJECT_ID": "2023-090V",
    "EPOCH": "2023-07-17T06:00:00.999648",
    "MEAN_MOTION": 15.6832001,
    "ECCENTRICITY": 0.0001574,
    "INCLINATION": 43.0001,
    "RA_OF_ASC_NODE": 139.0134,
    "ARG_OF_PERICENTER": 270.3534,
    "MEAN_ANOMALY": 118.011,
    "EPHEMERIS_TYPE": 0,
    "CLASSIFICATION_TYPE": "U",
    "NORAD_CAT_ID": 57120,
    "ELEMENT_SET_NO": 999,
    "REV_AT_EPOCH": 374,
    "BSTAR": -0.0081041,
    "MEAN_MOTION_DOT": -0.00846123,
    "MEAN_MOTION_DDOT": 0
},{
    "OBJECT_NAME": "STARLINK-6152",
    "OBJECT_ID": "2023-090W",
    "EPOCH": "2023-07-17T06:00:00.999648",
    "MEAN_MOTION": 15.68355666,
    "ECCENTRICITY": 0.0001563,
    "INCLINATION": 43.0003,
    "RA_OF_ASC_NODE": 139.0042,
    "ARG_OF_PERICENTER": 277.1895,
    "MEAN_ANOMALY": 114.9457,
    "EPHEMERIS_TYPE": 0,
    "CLASSIFICATION_TYPE": "U",
    "NORAD_CAT_ID": 57121,
    "ELEMENT_SET_NO": 999,
    "REV_AT_EPOCH": 374,
    "BSTAR": -0.0080842,
    "MEAN_MOTION_DOT": -0.00845369,
    "MEAN_MOTION_DDOT": 0
},{
    "OBJECT_NAME": "STARLINK-6149",
    "OBJECT_ID": "2023-090X",
    "EPOCH": "2023-07-17T14:00:01.999872",
    "MEAN_MOTION": 15.67708829,
    "ECCENTRICITY": 0.0001563,
    "INCLINATION": 43.0005,
    "RA_OF_ASC_NODE": 137.0049,
    "ARG_OF_PERICENTER": 268.2057,
    "MEAN_ANOMALY": 206.042,
    "EPHEMERIS_TYPE": 0,
    "CLASSIFICATION_TYPE": "U",
    "NORAD_CAT_ID": 57122,
    "ELEMENT_SET_NO": 999,
    "REV_AT_EPOCH": 379,
    "BSTAR": -0.0088917,
    "MEAN_MOTION_DOT": -0.00913085,
    "MEAN_MOTION_DDOT": 0
},{
    "OBJECT_NAME": "STARLINK-6154",
    "OBJECT_ID": "2023-090Y",
    "EPOCH": "2023-07-17T14:00:01.999872",
    "MEAN_MOTION": 15.67741664,
    "ECCENTRICITY": 0.0001537,
    "INCLINATION": 43.0007,
    "RA_OF_ASC_NODE": 136.9978,
    "ARG_OF_PERICENTER": 264.8226,
    "MEAN_ANOMALY": 212.6022,
    "EPHEMERIS_TYPE": 0,
    "CLASSIFICATION_TYPE": "U",
    "NORAD_CAT_ID": 57123,
    "ELEMENT_SET_NO": 999,
    "REV_AT_EPOCH": 379,
    "BSTAR": -0.0089502,
    "MEAN_MOTION_DOT": -0.0091969,
    "MEAN_MOTION_DDOT": 0
},{
    "OBJECT_NAME": "STARLINK-6146",
    "OBJECT_ID": "2023-090Z",
    "EPOCH": "2023-07-17T14:00:01.999872",
    "MEAN_MOTION": 15.677151,
    "ECCENTRICITY": 0.0001572,
    "INCLINATION": 43.0006,
    "RA_OF_ASC_NODE": 137.0034,
    "ARG_OF_PERICENTER": 266.9499,
    "MEAN_ANOMALY": 207.9334,
    "EPHEMERIS_TYPE": 0,
    "CLASSIFICATION_TYPE": "U",
    "NORAD_CAT_ID": 57124,
    "ELEMENT_SET_NO": 999,
    "REV_AT_EPOCH": 379,
    "BSTAR": -0.0088974,
    "MEAN_MOTION_DOT": -0.00913837,
    "MEAN_MOTION_DDOT": 0
},{
    "OBJECT_NAME": "STARLINK-6100",
    "OBJECT_ID": "2023-090AA",
    "EPOCH": "2023-07-17T07:19:38.673408",
    "MEAN_MOTION": 15.71354688,
    "ECCENTRICITY": 0.0001446,
    "INCLINATION": 43.0006,
    "RA_OF_ASC_NODE": 138.6329,
    "ARG_OF_PERICENTER": 263.4873,
    "MEAN_ANOMALY": 96.583,
    "EPHEMERIS_TYPE": 0,
    "CLASSIFICATION_TYPE": "U",
    "NORAD_CAT_ID": 57125,
    "ELEMENT_SET_NO": 999,
    "REV_AT_EPOCH": 375,
    "BSTAR": -7.1666e-6,
    "MEAN_MOTION_DOT": -1.391e-5,
    "MEAN_MOTION_DDOT": 0
},{
    "OBJECT_NAME": "STARLINK-6167",
    "OBJECT_ID": "2023-090AB",
    "EPOCH": "2023-07-17T06:00:00.999648",
    "MEAN_MOTION": 15.68349308,
    "ECCENTRICITY": 0.0001583,
    "INCLINATION": 43,
    "RA_OF_ASC_NODE": 139.0052,
    "ARG_OF_PERICENTER": 275.1997,
    "MEAN_ANOMALY": 116.3077,
    "EPHEMERIS_TYPE": 0,
    "CLASSIFICATION_TYPE": "U",
    "NORAD_CAT_ID": 57126,
    "ELEMENT_SET_NO": 999,
    "REV_AT_EPOCH": 374,
    "BSTAR": -0.0080872,
    "MEAN_MOTION_DOT": -0.00845457,
    "MEAN_MOTION_DDOT": 0
},{
    "OBJECT_NAME": "STARLINK-6165",
    "OBJECT_ID": "2023-090AC",
    "EPOCH": "2023-07-17T06:00:00.999648",
    "MEAN_MOTION": 15.68383019,
    "ECCENTRICITY": 0.0001576,
    "INCLINATION": 43.0009,
    "RA_OF_ASC_NODE": 138.9998,
    "ARG_OF_PERICENTER": 270.8797,
    "MEAN_ANOMALY": 123.7668,
    "EPHEMERIS_TYPE": 0,
    "CLASSIFICATION_TYPE": "U",
    "NORAD_CAT_ID": 57127,
    "ELEMENT_SET_NO": 999,
    "REV_AT_EPOCH": 374,
    "BSTAR": -0.008128,
    "MEAN_MOTION_DOT": -0.00850386,
    "MEAN_MOTION_DDOT": 0
},{
    "OBJECT_NAME": "STARLINK-6163",
    "OBJECT_ID": "2023-090AD",
    "EPOCH": "2023-07-17T06:00:00.999648",
    "MEAN_MOTION": 15.68364687,
    "ECCENTRICITY": 0.0001601,
    "INCLINATION": 43.0002,
    "RA_OF_ASC_NODE": 139.0028,
    "ARG_OF_PERICENTER": 275.7668,
    "MEAN_ANOMALY": 116.9957,
    "EPHEMERIS_TYPE": 0,
    "CLASSIFICATION_TYPE": "U",
    "NORAD_CAT_ID": 57128,
    "ELEMENT_SET_NO": 999,
    "REV_AT_EPOCH": 374,
    "BSTAR": -0.0081335,
    "MEAN_MOTION_DOT": -0.0085033,
    "MEAN_MOTION_DDOT": 0
},{
    "OBJECT_NAME": "STARLINK-6170",
    "OBJECT_ID": "2023-090AE",
    "EPOCH": "2023-07-17T07:20:23.964288",
    "MEAN_MOTION": 15.713876,
    "ECCENTRICITY": 0.0001456,
    "INCLINATION": 43.0008,
    "RA_OF_ASC_NODE": 138.6384,
    "ARG_OF_PERICENTER": 258.9863,
    "MEAN_ANOMALY": 101.0841,
    "EPHEMERIS_TYPE": 0,
    "CLASSIFICATION_TYPE": "U",
    "NORAD_CAT_ID": 57129,
    "ELEMENT_SET_NO": 999,
    "REV_AT_EPOCH": 375,
    "BSTAR": 0.00024744,
    "MEAN_MOTION_DOT": 0.00032164,
    "MEAN_MOTION_DDOT": 0
},{
    "OBJECT_NAME": "STARLINK-6172",
    "OBJECT_ID": "2023-090AF",
    "EPOCH": "2023-07-17T14:00:01.999872",
    "MEAN_MOTION": 15.67744198,
    "ECCENTRICITY": 0.0001581,
    "INCLINATION": 43.001,
    "RA_OF_ASC_NODE": 136.9967,
    "ARG_OF_PERICENTER": 267.9307,
    "MEAN_ANOMALY": 210.1299,
    "EPHEMERIS_TYPE": 0,
    "CLASSIFICATION_TYPE": "U",
    "NORAD_CAT_ID": 57130,
    "ELEMENT_SET_NO": 999,
    "REV_AT_EPOCH": 379,
    "BSTAR": -0.0088703,
    "MEAN_MOTION_DOT": -0.00912296,
    "MEAN_MOTION_DDOT": 0
},{
    "OBJECT_NAME": "STARLINK-6162",
    "OBJECT_ID": "2023-090AG",
    "EPOCH": "2023-07-16T23:42:27.228096",
    "MEAN_MOTION": 15.71357466,
    "ECCENTRICITY": 0.0001537,
    "INCLINATION": 43.0005,
    "RA_OF_ASC_NODE": 140.5529,
    "ARG_OF_PERICENTER": 274.5964,
    "MEAN_ANOMALY": 85.4728,
    "EPHEMERIS_TYPE": 0,
    "CLASSIFICATION_TYPE": "U",
    "NORAD_CAT_ID": 57131,
    "ELEMENT_SET_NO": 999,
    "REV_AT_EPOCH": 370,
    "BSTAR": 1.9217e-5,
    "MEAN_MOTION_DOT": 2.069e-5,
    "MEAN_MOTION_DDOT": 0
},{
    "OBJECT_NAME": "STARLINK-6128",
    "OBJECT_ID": "2023-090AH",
    "EPOCH": "2023-07-17T14:00:01.999872",
    "MEAN_MOTION": 15.67756922,
    "ECCENTRICITY": 0.0001561,
    "INCLINATION": 43.0007,
    "RA_OF_ASC_NODE": 136.9925,
    "ARG_OF_PERICENTER": 266.8509,
    "MEAN_ANOMALY": 212.4802,
    "EPHEMERIS_TYPE": 0,
    "CLASSIFICATION_TYPE": "U",
    "NORAD_CAT_ID": 57132,
    "ELEMENT_SET_NO": 999,
    "REV_AT_EPOCH": 379,
    "BSTAR": -0.008884,
    "MEAN_MOTION_DOT": -0.00914014,
    "MEAN_MOTION_DDOT": 0
},{
    "OBJECT_NAME": "STARLINK-6143",
    "OBJECT_ID": "2023-090AJ",
    "EPOCH": "2023-07-17T07:19:29.401824",
    "MEAN_MOTION": 15.71370533,
    "ECCENTRICITY": 0.0001406,
    "INCLINATION": 43.0006,
    "RA_OF_ASC_NODE": 138.6321,
    "ARG_OF_PERICENTER": 262.5811,
    "MEAN_ANOMALY": 97.4897,
    "EPHEMERIS_TYPE": 0,
    "CLASSIFICATION_TYPE": "U",
    "NORAD_CAT_ID": 57133,
    "ELEMENT_SET_NO": 999,
    "REV_AT_EPOCH": 375,
    "BSTAR": 8.1253e-5,
    "MEAN_MOTION_DOT": 0.00010223,
    "MEAN_MOTION_DDOT": 0
},{
    "OBJECT_NAME": "STARLINK-6133",
    "OBJECT_ID": "2023-090AK",
    "EPOCH": "2023-07-17T07:20:14.941536",
    "MEAN_MOTION": 15.71376849,
    "ECCENTRICITY": 0.0001527,
    "INCLINATION": 43.0004,
    "RA_OF_ASC_NODE": 138.6361,
    "ARG_OF_PERICENTER": 259.953,
    "MEAN_ANOMALY": 100.1165,
    "EPHEMERIS_TYPE": 0,
    "CLASSIFICATION_TYPE": "U",
    "NORAD_CAT_ID": 57134,
    "ELEMENT_SET_NO": 999,
    "REV_AT_EPOCH": 375,
    "BSTAR": 0.0001885,
    "MEAN_MOTION_DOT": 0.00024361,
    "MEAN_MOTION_DDOT": 0
},{
    "OBJECT_NAME": "STARLINK-6127",
    "OBJECT_ID": "2023-090AL",
    "EPOCH": "2023-07-17T07:19:02.220384",
    "MEAN_MOTION": 15.71382156,
    "ECCENTRICITY": 0.0001623,
    "INCLINATION": 43.0004,
    "RA_OF_ASC_NODE": 138.6319,
    "ARG_OF_PERICENTER": 269.95,
    "MEAN_ANOMALY": 90.1182,
    "EPHEMERIS_TYPE": 0,
    "CLASSIFICATION_TYPE": "U",
    "NORAD_CAT_ID": 57135,
    "ELEMENT_SET_NO": 999,
    "REV_AT_EPOCH": 375,
    "BSTAR": 0.00059836,
    "MEAN_MOTION_DOT": 0.00078847,
    "MEAN_MOTION_DDOT": 0
}]
